 '2 43116  97.5138  86.2408 0011078  61.9285 298.3070 15.22771886 56441',
 '1 43116U 18004F   19018.25110663  .00000815  00000-0  37924-4 0  9994',
 '2 43116  97.5138  86.3065 0011075  61.7331 298.5021 15.22772184 56459',
 '1 43116U 18004F   19018.77679978  .00000776  00000-0  36252-4 0  9999',
 '2 43116  97.5137  86.8322 0011054  60.1091 300.1242 15.22772814 56536',
 '1 43116U 18004F   19019.17106915  .00000799  00000-0  37228-4 0  9999',
 '2 43116  97.5136  87.2265 0011027  58.8930 301.3387 15.22773654 56594',
 '1 43116U 18004F   19019.43391556  .00000781  00000-0  36461-4 0  9994',
 '2 43116  97.5135  87.4893 0011015  58.1162 302.1144 15.22773935 56636',
 '1 43116U 18004F   19019.56533863  .00000787  00000-0  36714-4 0  9994',
 '2 43116  97.5135  87.6207 0011008  57.7479 302.4822 15.22774202 56651',
 '1 43116U 18004F   19019.76247326  .00000789  00000-0  36817-4 0  9998',
 '2 43116  97.5135  87.8179 0010995  57.1283 303.1010 15.22774526 56681',
 '1 43116U 18004F   19020.15674246  .00000778  00000-0  36328-4 0  9993',
 '2 43116  97.5133  88.2121 0010971  55.8543 304.3732 15.22775092 56749',
 '1 43116U 18004F   19020.55101113  .00000841  00000-0  39031-4 0  9990',
 '2 43116  97.5133  88.6064 0010946  54.6910 305.5349 15.22776171 56809',
 '1 43116U 18004F   19020.81385730  .00000754  00000-0  35304-4 0  9990',
 '2 43116  97.5132  88.8693 0010931  53.8516 306.3730 15.22776044 56841',
 '1 43116U 18004F   19021.60239456  .00000766  00000-0  35853-4 0  9993',
 '2 43116  97.5131  89.6578 0010876  51.4620 308.7590 15.22777412 56962',
 '1 43116U 18004F   19021.73381737  .00000760  00000-0  35568-4 0  9994',
 '2 43116  97.5131  89.7892 0010868  51.0549 309.1654 15.22777594 56988',
 '1 43116U 18004F   19022.19379678  .00000775  00000-0  36228-4 0  9996',
 '2 43116  97.5129  90.2492 0010829  49.6126 310.6053 15.22778524 57052',
 '1 43116U 18004F   19022.25950833  .00000806  00000-0  37535-4 0  9998',
 '2 43116  97.5129  90.3149 0010825  49.4040 310.8136 15.22778725 57069',
 '1 43116U 18004F   19022.78519901  .00000803  00000-0  37430-4 0  9994',
 '2 43116  97.5129  90.8405 0010787  47.7833 312.4317 15.22779594 57140',
 '1 43116U 18004F   19023.17946663  .00000787  00000-0  36714-4 0  9992',
 '2 43116  97.5128  91.2348 0010751  46.5120 313.7008 15.22780232 57206',
 '1 43116U 18004F   19023.24517785  .00000891  00000-0  41166-4 0  9992',
 '2 43116  97.5128  91.3005 0010748  46.3000 313.9125 15.22780907 57210',
 '1 43116U 18004F   19023.63944517  .00000914  00000-0  42166-4 0  9999',
 '2 43116  97.5127  91.6948 0010722  45.0960 315.1145 15.22781771 57273',
 '1 43116U 18004F   19024.16513480  .00000901  00000-0  41597-4 0  9992',
 '2 43116  97.5126  92.2205 0010682  43.4196 316.7879 15.22782610 57356',
 '1 43116U 18004F   19024.42797945  .00000970  00000-0  44551-4 0  9990',
 '2 43116  97.5126  92.4833 0010661  42.6228 317.5834 15.22783431 57395',
 '1 43116U 18004F   19024.75653525  .00000963  00000-0  44264-4 0  9994',
 '2 43116  97.5126  92.8118 0010642  41.5566 318.6477 15.22783958 57442',
 '1 43116U 18004F   19025.74220136  .00000978  00000-0  44888-4 0  9990',
 '2 43116  97.5124  93.7974 0010560  38.4676 321.7311 15.22785901 57594',
 '1 43116U 18004F   19026.20217825  .00000985  00000-0  45205-4 0  9995',
 '2 43116  97.5124  94.2574 0010517  36.9861 323.2098 15.22786904 57668',
 '1 43116U 18004F   19026.39931167  .00000919  00000-0  42390-4 0  9996',
 '2 43116  97.5123  94.4545 0010500  36.3871 323.8077 15.22786778 57699',
 '1 43116U 18004F   19026.85928826  .00000925  00000-0  42635-4 0  9994',
 '2 43116  97.5123  94.9145 0010461  34.8797 325.3123 15.22787764 57769',
 '1 43116U 18004F   19026.92499907  .00000938  00000-0  43180-4 0  9995',
 '2 43116  97.5123  94.9802 0010455  34.6678 325.5238 15.22788004 57776',
 '1 43116U 18004F   19027.12213175  .00000934  00000-0  43015-4 0  9992',
 '2 43116  97.5122  95.1773 0010438  33.9955 326.1948 15.22788430 57808',
 '1 43116U 18004F   19027.25355379  .00000898  00000-0  41488-4 0  9990',
 '2 43116  97.5122  95.3087 0010426  33.5810 326.6086 15.22788431 57822',
 '1 43116U 18004F   19027.58210818  .00000906  00000-0  41824-4 0  9998',
 '2 43116  97.5122  95.6372 0010399  32.5303 327.6572 15.22789161 57874',
 '1 43116U 18004F   19027.71352992  .00000896  00000-0  41392-4 0  9991',
 '2 43116  97.5122  95.7686 0010391  32.0996 328.0871 15.22789375 57894',
 '1 43116U 18004F   19028.30492737  .00000877  00000-0  40591-4 0  9998',
 '2 43116  97.5121  96.3599 0010339  30.1485 330.0345 15.22790493 57989',
 '1 43116U 18004F   19028.83061366  .00000789  00000-0  36827-4 0  9995',
 '2 43116  97.5120  96.8856 0010300  28.4273 331.7523 15.22791076 58066',
 '1 43116U 18004F   19029.15916736  .00000844  00000-0  39167-4 0  9993',
 '2 43116  97.5119  97.2141 0010270  27.3510 332.8265 15.22792047 58114',
 '1 43116U 18004F   19029.42201036  .00000880  00000-0  40678-4 0  9992',
 '2 43116  97.5119  97.4769 0010249  26.5129 333.6630 15.22792717 58158',
 '1 43116U 18004F   19029.88198526  .00000868  00000-0  40194-4 0  9990',
 '2 43116  97.5119  97.9368 0010210  24.9960 335.1769 15.22793557 58222',
 '1 43116U 18004F   19030.14482770  .00000887  00000-0  40995-4 0  9998',
 '2 43116  97.5118  98.1996 0010183  24.1265 336.0446 15.22794265 58263',
 '1 43116U 18004F   19030.60480253  .00000893  00000-0  41243-4 0  9997',
 '2 43116  97.5118  98.6595 0010140  22.6221 337.5461 15.22795089 58337',
 '1 43116U 18004F   19031.13048719  .00000918  00000-0  42315-4 0  9992',
 '2 43116  97.5116  99.1851 0010091  20.8368 339.3277 15.22796283 58414',
 '1 43116U 18004F   19031.32761910  .00000950  00000-0  43683-4 0  9993',
 '2 43116  97.5116  99.3822 0010071  20.1862 339.9771 15.22796757 58448',
 '1 43116U 18004F   19031.78759285  .00000952  00000-0  43785-4 0  9990',
 '2 43116  97.5116  99.8421 0010025  18.6639 341.4963 15.22797671 58516',
 '1 43116U 18004F   19032.18185520  .00001058  00000-0  48283-4 0  9996',
 '2 43116  97.5115 100.2363 0009998  17.2672 342.8903 15.22799219 58571',
 '1 43116U 18004F   19032.24756538  .00001169  00000-0  53035-4 0  9990',
 '2 43116  97.5115 100.3020 0009991  17.0568 343.1002 15.22800030 58586',
 '1 43116U 18004F   19032.77324898  .00001107  00000-0  50384-4 0  9994',
 '2 43116  97.5114 100.8276 0009942  15.3114 344.8422 15.22800701 58665',
 '1 43116U 18004F   19032.90466966  .00001148  00000-0  52127-4 0  9994',
 '2 43116  97.5114 100.9590 0009932  14.8629 345.2897 15.22801210 58688',
 '1 43116U 18004F   19033.16751093  .00001168  00000-0  52983-4 0  9993',
 '2 43116  97.5113 101.2218 0009906  13.9508 346.2000 15.22801951 58729',
 '1 43116U 18004F   19033.36464177  .00001248  00000-0  56434-4 0  9993',
 '2 43116  97.5113 101.4189 0009881  13.2956 346.8539 15.22802840 58754',
 '1 43116U 18004F   19033.75890417  .00001025  00000-0  46905-4 0  9991',
 '2 43116  97.5112 101.8131 0009841  11.9828 348.1641 15.22802325 58817',
 '1 43116U 18004F   19034.21887533  .00001237  00000-0  55930-4 0  9991',
 '2 43116  97.5111 102.2730 0009796  10.3510 349.7926 15.22804686 58888',
 '1 43116U 18004F   19034.28458552  .00001297  00000-0  58491-4 0  9994',
 '2 43116  97.5111 102.3387 0009790  10.1212 350.0220 15.22805160 58899',
 '1 43116U 18004F   19034.81026712  .00001240  00000-0  56073-4 0  9994',
 '2 43116  97.5110 102.8643 0009731   8.3366 351.8030 15.22806071 58971',
 '1 43116U 18004F   19035.13881784  .00001229  00000-0  55610-4 0  9991',
 '2 43116  97.5109 103.1927 0009692   7.1874 352.9499 15.22806812 59026',
 '1 43116U 18004F   19035.27023833  .00001213  00000-0  54905-4 0  9998',
 '2 43116  97.5109 103.3241 0009677   6.7375 353.3989 15.22806958 59043',
 '1 43116U 18004F   19035.73020909  .00001152  00000-0  52333-4 0  9995',
 '2 43116  97.5108 103.7840 0009626   5.1674 354.9660 15.22807754 59116',
 '1 43116U 18004F   19036.19017901  .00001163  00000-0  52790-4 0  9993',
 '2 43116  97.5107 104.2438 0009584   3.5039 356.6262 15.22809099 59182',
 '1 43116U 18004F   19037.17582847  .00001053  00000-0  48069-4 0  9990',
 '2 43116  97.5105 105.2292 0009484   0.0616   0.0619 15.22811032 59334',
 '1 43116U 18004F   19037.30724843  .00001054  00000-0  48103-4 0  9999',
 '2 43116  97.5105 105.3606 0009465 359.6166   0.5062 15.22811312 59356',
 '1 43116U 18004F   19037.76721743  .00001043  00000-0  47631-4 0  9998',
 '2 43116  97.5104 105.8204 0009427 358.0116   2.1081 15.22812455 59426',
 '1 43116U 18004F   19038.16147658  .00000974  00000-0  44681-4 0  9994',
 '2 43116  97.5102 106.2145 0009388 356.5918   3.5253 15.22813015 59487',
 '1 43116U 18004F   19038.22718645  .00001052  00000-0  48026-4 0  9996',
 '2 43116  97.5102 106.2802 0009382 356.3529   3.7638 15.22813569 59491',
 '1 43116U 18004F   19038.49002565  .00001040  00000-0  47531-4 0  9999',
 '2 43116  97.5102 106.5429 0009348 355.4322   4.6827 15.22814126 59537',
 '1 43116U 18004F   19038.81857475  .00000975  00000-0  44726-4 0  9992',
 '2 43116  97.5102 106.8714 0009322 354.2458   5.8669 15.22814483 59584',
 '1 43116U 18004F   19038.88428452  .00000972  00000-0  44610-4 0  9997',
 '2 43116  97.5101 106.9371 0009314 354.0100   6.1023 15.22814609 59595',
 '1 43116U 18004F   19039.14712346  .00000968  00000-0  44437-4 0  9997',
 '2 43116  97.5101 107.1999 0009288 353.0359   7.0746 15.22815215 59630',
 '1 43116U 18004F   19039.73851093  .00000978  00000-0  44851-4 0  9996',
 '2 43116  97.5100 107.7911 0009226 350.9337   9.1732 15.22816573 59729',
 '1 43116U 18004F   19040.19847848  .00000979  00000-0  44929-4 0  9998',
 '2 43116  97.5099 108.2509 0009180 349.2020  10.9017 15.22817624 59795',
 '1 43116U 18004F   19040.26418791  .00001057  00000-0  48224-4 0  9997',
 '2 43116  97.5099 108.3166 0009176 348.9645  11.1389 15.22818244 59805',
 '1 43116U 18004F   19040.72415542  .00000996  00000-0  45637-4 0  9995',
 '2 43116  97.5099 108.7764 0009127 347.2725  12.8279 15.22818867 59874',
 '1 43116U 18004F   19041.18412231  .00000998  00000-0  45712-4 0  9994',
 '2 43116  97.5098 109.2363 0009085 345.5481  14.5494 15.22819922 59946',
